start=new Date('2023-04-02T00:00:00.000Z').valueOf();
sats=[{"ECCENTRICITY":"0.00013150","FILE":"3877516","REV_AT_EPOCH":"10545","NORAD_CAT_ID":"48368","EPOCH":"2023-04-01T18:55:19.729920","INCLINATION":"53.0525","CENTER_NAME":"EARTH","APOAPSIS":"548.217","SITE":"AFETR","OBJECT_TYPE":"PAYLOAD","OBJECT_ID":"2021-038R","SEMIMAJOR_AXIS":"6925.441","REF_FRAME":"TEME","BSTAR":"0.00125580000000","PERIAPSIS":"546.395","GP_ID":"229276764","MEAN_ANOMALY":"284.1099","MEAN_MOTION":"15.06369884","MEAN_ELEMENT_THEORY":"SGP4","COUNTRY_CODE":"US","TLE_LINE2":"2 48368  53.0525 128.3381 0001315  76.0036 284.1099 15.06369884105457","EPHEMERIS_TYPE":"0","CLASSIFICATION_TYPE":"U","PERIOD":"95.594","MEAN_MOTION_DDOT":"0.0000000000000","MEAN_MOTION_DOT":"0.00018458","RA_OF_ASC_NODE":"128.3381","TIME_SYSTEM":"UTC","LAUNCH_DATE":"2021-05-04","ARG_OF_PERICENTER":"76.0036","OBJECT_NAME":"STARLINK-2623","RCS_SIZE":"LARGE","TLE_LINE1":"1 48368U 21038R   23091.78842280  .00018458  00000-0  12558-2 0  9996","DECAY_DATE":null,"ELEMENT_SET_NO":"999"},{"LAUNCH_DATE":"2021-05-04","OBJECT_NAME":"STARLINK-2641","ARG_OF_PERICENTER":"77.5497","DECAY_DATE":null,"ELEMENT_SET_NO":"999","RCS_SIZE":"LARGE","TLE_LINE1":"1 48369U 21038S   23091.80682565  .00023872  00000-0  16170-2 0  9998","MEAN_MOTION_DDOT":"0.0000000000000","TIME_SYSTEM":"UTC","RA_OF_ASC_NODE":"127.9783","MEAN_MOTION_DOT":"0.00023872","SEMIMAJOR_AXIS":"6925.414","OBJECT_ID":"2021-038S","OBJECT_TYPE":"PAYLOAD","PERIAPSIS":"546.341","GP_ID":"229277014","REF_FRAME":"TEME","BSTAR":"0.00161700000000","MEAN_ANOMALY":"282.5644","PERIOD":"95.593","TLE_LINE2":"2 48369  53.0525 127.9783 0001354  77.5497 282.5644 15.06378661105450","EPHEMERIS_TYPE":"0","COUNTRY_CODE":"US","CLASSIFICATION_TYPE":"U","MEAN_ELEMENT_THEORY":"SGP4","MEAN_MOTION":"15.06378661","FILE":"3877516","ECCENTRICITY":"0.00013540","NORAD_CAT_ID":"48369","REV_AT_EPOCH":"10545","APOAPSIS":"548.217","INCLINATION":"53.0525","CENTER_NAME":"EARTH","EPOCH":"2023-04-01T19:21:49.736160","SITE":"AFETR"},{"GP_ID":"229276264","PERIAPSIS":"546.314","BSTAR":"0.00121880000000","REF_FRAME":"TEME","SEMIMAJOR_AXIS":"6925.412","OBJECT_ID":"2021-038T","OBJECT_TYPE":"PAYLOAD","PERIOD":"95.593","CLASSIFICATION_TYPE":"U","TLE_LINE2":"2 48370  53.0526 127.9925 0001390  77.0942 283.0202 15.06379402105451","COUNTRY_CODE":"US","EPHEMERIS_TYPE":"0","MEAN_ELEMENT_THEORY":"SGP4","MEAN_MOTION":"15.06379402","MEAN_ANOMALY":"283.0202","NORAD_CAT_ID":"48370","REV_AT_EPOCH":"10545","FILE":"3877516","ECCENTRICITY":"0.00013900","SITE":"AFETR","APOAPSIS":"548.239","INCLINATION":"53.0526","CENTER_NAME":"EARTH","EPOCH":"2023-04-01T19:16:31.440288","LAUNCH_DATE":"2021-05-04","DECAY_DATE":null,"ELEMENT_SET_NO":"999","RCS_SIZE":"LARGE","TLE_LINE1":"1 48370U 21038T   23091.80314167  .00017909  00000-0  12188-2 0  9999","OBJECT_NAME":"STARLINK-2621","ARG_OF_PERICENTER":"77.0942","MEAN_MOTION_DDOT":"0.0000000000000","TIME_SYSTEM":"UTC","MEAN_MOTION_DOT":"0.00017909","RA_OF_ASC_NODE":"127.9925"},{"LAUNCH_DATE":"2021-05-04","ARG_OF_PERICENTER":"115.9461","OBJECT_NAME":"STARLINK-2589","TLE_LINE1":"1 48371U 21038U   23091.79944707  .00018197  00000-0  12377-2 0  9997","RCS_SIZE":"LARGE","DECAY_DATE":null,"ELEMENT_SET_NO":"999","MEAN_MOTION_DDOT":"0.0000000000000","RA_OF_ASC_NODE":"128.0114","MEAN_MOTION_DOT":"0.00018197","TIME_SYSTEM":"UTC","OBJECT_ID":"2021-038U","OBJECT_TYPE":"PAYLOAD","SEMIMAJOR_AXIS":"6925.377","BSTAR":"0.00123770000000","REF_FRAME":"TEME","GP_ID":"229276014","PERIAPSIS":"546.052","MEAN_ANOMALY":"244.1705","MEAN_MOTION":"15.06390679","MEAN_ELEMENT_THEORY":"SGP4","CLASSIFICATION_TYPE":"U","TLE_LINE2":"2 48371  53.0539 128.0114 0001719 115.9461 244.1705 15.06390679105456","COUNTRY_CODE":"US","EPHEMERIS_TYPE":"0","PERIOD":"95.593","ECCENTRICITY":"0.00017190","FILE":"3877516","REV_AT_EPOCH":"10545","NORAD_CAT_ID":"48371","EPOCH":"2023-04-01T19:11:12.226848","INCLINATION":"53.0539","CENTER_NAME":"EARTH","APOAPSIS":"548.433","SITE":"AFETR"},{"ECCENTRICITY":"0.00014320","FILE":"3877516","NORAD_CAT_ID":"48372","REV_AT_EPOCH":"10545","EPOCH":"2023-04-01T19:05:54.387168","APOAPSIS":"548.232","INCLINATION":"53.0529","CENTER_NAME":"EARTH","SITE":"AFETR","OBJECT_TYPE":"PAYLOAD","OBJECT_ID":"2021-038V","SEMIMAJOR_AXIS":"6925.376","BSTAR":"0.00159600000000","REF_FRAME":"TEME","GP_ID":"229277265","PERIAPSIS":"546.249","MEAN_ANOMALY":"276.3164","MEAN_ELEMENT_THEORY":"SGP4","MEAN_MOTION":"15.06391186","PERIOD":"95.593","COUNTRY_CODE":"US","TLE_LINE2":"2 48372  53.0529 128.0240 0001432  83.7988 276.3164 15.06391186105454","EPHEMERIS_TYPE":"0","CLASSIFICATION_TYPE":"U","MEAN_MOTION_DDOT":"0.0000000000000","RA_OF_ASC_NODE":"128.0240","MEAN_MOTION_DOT":"0.00023565","TIME_SYSTEM":"UTC","LAUNCH_DATE":"2021-05-04","OBJECT_NAME":"STARLINK-2572","ARG_OF_PERICENTER":"83.7988","RCS_SIZE":"LARGE","TLE_LINE1":"1 48372U 21038V   23091.79576837  .00023565  00000-0  15960-2 0  9999","DECAY_DATE":null,"ELEMENT_SET_NO":"999"},{"LAUNCH_DATE":"2021-05-04","ARG_OF_PERICENTER":"88.8025","OBJECT_NAME":"STARLINK-2609","TLE_LINE1":"1 48373U 21038W   23091.79208618  .00023571  00000-0  15966-2 0  9992","RCS_SIZE":"LARGE","DECAY_DATE":null,"ELEMENT_SET_NO":"999","MEAN_MOTION_DDOT":"0.0000000000000","RA_OF_ASC_NODE":"128.0383","MEAN_MOTION_DOT":"0.00023571","TIME_SYSTEM":"UTC","OBJECT_TYPE":"PAYLOAD","OBJECT_ID":"2021-038W","SEMIMAJOR_AXIS":"6925.389","BSTAR":"0.00159660000000","REF_FRAME":"TEME","PERIAPSIS":"546.029","GP_ID":"229277515","MEAN_ANOMALY":"271.3166","MEAN_MOTION":"15.06386735","MEAN_ELEMENT_THEORY":"SGP4","COUNTRY_CODE":"US","TLE_LINE2":"2 48373  53.0540 128.0383 0001769  88.8025 271.3166 15.06386735105458","EPHEMERIS_TYPE":"0","CLASSIFICATION_TYPE":"U","PERIOD":"95.593","ECCENTRICITY":"0.00017690","FILE":"3877516","REV_AT_EPOCH":"10545","NORAD_CAT_ID":"48373","EPOCH":"2023-04-01T19:00:36.245952","INCLINATION":"53.0540","CENTER_NAME":"EARTH","APOAPSIS":"548.479","SITE":"AFETR"},{"SEMIMAJOR_AXIS":"6925.417","OBJECT_TYPE":"PAYLOAD","OBJECT_ID":"2021-038X","GP_ID":"229275764","PERIAPSIS":"546.389","BSTAR":"0.00118610000000","REF_FRAME":"TEME","MEAN_ANOMALY":"278.2968","EPHEMERIS_TYPE":"0","TLE_LINE2":"2 48374  53.0529 128.0553 0001290  81.8167 278.2968 15.06377555105450","COUNTRY_CODE":"US","CLASSIFICATION_TYPE":"U","PERIOD":"95.594","MEAN_MOTION":"15.06377555","MEAN_ELEMENT_THEORY":"SGP4","FILE":"3877516","ECCENTRICITY":"0.00012900","REV_AT_EPOCH":"10545","NORAD_CAT_ID":"48374","INCLINATION":"53.0529","CENTER_NAME":"EARTH","APOAPSIS":"548.176","EPOCH":"2023-04-01T18:53:55.748256","SITE":"AFETR","LAUNCH_DATE":"2021-05-04","ARG_OF_PERICENTER":"81.8167","OBJECT_NAME":"STARLINK-2604","DECAY_DATE":null,"ELEMENT_SET_NO":"999","RCS_SIZE":"LARGE","TLE_LINE1":"1 48374U 21038X   23091.78745079  .00017419  00000-0  11861-2 0  9993","MEAN_MOTION_DDOT":"0.0000000000000","TIME_SYSTEM":"UTC","MEAN_MOTION_DOT":"0.00017419","RA_OF_ASC_NODE":"128.0553"},{"LAUNCH_DATE":"2021-05-04","ARG_OF_PERICENTER":"90.9095","OBJECT_NAME":"STARLINK-2603","RCS_SIZE":"LARGE","TLE_LINE1":"1 48375U 21038Y   23091.38661698 -.00000010  00000-0  18195-4 0  9993","ELEMENT_SET_NO":"999","DECAY_DATE":null,"MEAN_MOTION_DDOT":"0.0000000000000","MEAN_MOTION_DOT":"-0.00000010","RA_OF_ASC_NODE":"129.8593","TIME_SYSTEM":"UTC","OBJECT_TYPE":"PAYLOAD","OBJECT_ID":"2021-038Y","SEMIMAJOR_AXIS":"6925.369","REF_FRAME":"TEME","BSTAR":"0.00001819500000","PERIAPSIS":"546.241","GP_ID":"229243234","MEAN_ANOMALY":"269.2059","MEAN_MOTION":"15.06393194","MEAN_ELEMENT_THEORY":"SGP4","COUNTRY_CODE":"US","TLE_LINE2":"2 48375  53.0538 129.8593 0001435  90.9095 269.2059 15.06393194105397","EPHEMERIS_TYPE":"0","CLASSIFICATION_TYPE":"U","PERIOD":"95.593","ECCENTRICITY":"0.00014350","FILE":"3877270","REV_AT_EPOCH":"10539","NORAD_CAT_ID":"48375","EPOCH":"2023-04-01T09:16:43.707072","INCLINATION":"53.0538","CENTER_NAME":"EARTH","APOAPSIS":"548.228","SITE":"AFETR"},{"FILE":"3877270","ECCENTRICITY":"0.00014960","REV_AT_EPOCH":"10539","NORAD_CAT_ID":"48376","INCLINATION":"53.0546","CENTER_NAME":"EARTH","APOAPSIS":"548.346","EPOCH":"2023-04-01T09:11:25.851840","SITE":"AFETR","SEMIMAJOR_AXIS":"6925.445","OBJECT_TYPE":"PAYLOAD","OBJECT_ID":"2021-038Z","PERIAPSIS":"546.274","GP_ID":"229243484","BSTAR":"0.00169850000000","REF_FRAME":"TEME","MEAN_ANOMALY":"284.0544","TLE_LINE2":"2 48376  53.0546 129.8776 0001496  76.0612 284.0544 15.06368574105395","COUNTRY_CODE":"US","EPHEMERIS_TYPE":"0","CLASSIFICATION_TYPE":"U","PERIOD":"95.594","MEAN_MOTION":"15.06368574","MEAN_ELEMENT_THEORY":"SGP4","MEAN_MOTION_DDOT":"0.0000000000000","TIME_SYSTEM":"UTC","MEAN_MOTION_DOT":"0.00025087","RA_OF_ASC_NODE":"129.8776","LAUNCH_DATE":"2021-05-04","ARG_OF_PERICENTER":"76.0612","OBJECT_NAME":"STARLINK-2610","DECAY_DATE":null,"ELEMENT_SET_NO":"999","TLE_LINE1":"1 48376U 21038Z   23091.38293810  .00025087  00000-0  16985-2 0  9994","RCS_SIZE":"LARGE"},{"LAUNCH_DATE":"2021-05-04","ELEMENT_SET_NO":"999","DECAY_DATE":null,"TLE_LINE1":"1 48377U 21038AA  23091.57828574  .00012836  00000-0  87876-3 0  9993","RCS_SIZE":"LARGE","ARG_OF_PERICENTER":"82.6357","OBJECT_NAME":"STARLINK-2499","MEAN_MOTION_DDOT":"0.0000000000000","TIME_SYSTEM":"UTC","RA_OF_ASC_NODE":"128.9996","MEAN_MOTION_DOT":"0.00012836","GP_ID":"229277015","PERIAPSIS":"546.088","BSTAR":"0.00087876000000","REF_FRAME":"TEME","SEMIMAJOR_AXIS":"6925.312","OBJECT_ID":"2021-038AA","OBJECT_TYPE":"PAYLOAD","COUNTRY_CODE":"US","TLE_LINE2":"2 48377  53.0541 128.9996 0001572  82.6357 277.4811 15.06411953105426","CLASSIFICATION_TYPE":"U","EPHEMERIS_TYPE":"0","PERIOD":"95.591","MEAN_MOTION":"15.06411953","MEAN_ELEMENT_THEORY":"SGP4","MEAN_ANOMALY":"277.4811","REV_AT_EPOCH":"10542","NORAD_CAT_ID":"48377","FILE":"3877516","ECCENTRICITY":"0.00015720","SITE":"AFETR","INCLINATION":"53.0541","CENTER_NAME":"EARTH","APOAPSIS":"548.266","EPOCH":"2023-04-01T13:52:43.887936"}];
